0 COSMOS 971
1 10536U 77122A   13283.05713038  .00000072  00000-0  62088-4 0  2145
2 10536 082.9343 071.5777 0019952 307.5057 190.3267 13.73095863793498
0 COSMOS 971
1 10536U 77122A   13286.54129105  .00000030  00000-0  16461-4 0  2168
2 10536 082.9352 069.0016 0019825 297.1921 133.6648 13.73096309793971
0 COSMOS 971
1 10536U 77122A   13287.78772125  .00000048  00000-0  35780-4 0  2176
2 10536 082.9355 068.0801 0019835 293.4448 175.2340 13.73096397794147
0 COSMOS 971
1 10536U 77122A   13288.80800851  .00000067  00000-0  56163-4 0  2188
2 10536 082.9356 067.3258 0019882 290.3883 178.8842 13.73096464794283
0 COSMOS 971
1 10536U 77122A   13289.90225840  .00000063  00000-0  51860-4 0  2195
2 10536 082.9358 066.5170 0019880 287.1201 188.1485 13.73096440794433
0 COSMOS 971
1 10536U 77122A   13291.00002252  .00000075  00000-0  65291-4 0  2207
2 10536 082.9359 065.7056 0019883 283.8517 214.7753 13.73096501794582
0 COSMOS 971
1 10536U 77122A   13292.01982733  .00000096  00000-0  87342-4 0  2215
2 10536 082.9360 064.9518 0019901 280.8431 215.9948 13.73096595794729
0 COSMOS 971
1 10536U 77122A   13293.45594464  .00000089  00000-0  79781-4 0  2225
2 10536 082.9361 063.8904 0019889 276.5972 115.1875 13.73096752794921
0 COSMOS 971
1 10536U 77122A   13294.85645875  .00000098  00000-0  90086-4 0  2235
2 10536 082.9362 062.8553 0019916 272.4337 198.4063 13.73096986795116
0 COSMOS 971
1 10536U 77122A   13295.87725692  .00000085  00000-0  75531-4 0  2249
2 10536 082.9363 062.1008 0019954 269.4574 204.5015 13.73097148795258
